JILIN-1 KUANFU 01       
1 45016U 20003A   26196.89774306  .00001541  00000+0  96372-4 0  9990
2 45016  97.5021 270.2936 0009316 194.2821 165.8147 15.10869320359663
JILIN-1 KUANFU-01B      
1 49003U 21061A   26196.93696277  .00001156  00000+0  75384-4 0  9992
2 49003  97.5211 272.5959 0005953 335.2055  24.8887 15.09810458277685
JILIN-1 KUANFU 01C      
1 52443U 22048A   26196.92894613  .00001198  00000+0  78274-4 0  9990
2 52443  97.5250 273.5783 0017368 217.5214 142.4804 15.09601795231530
JILIN-1 KUANFU 02A      
1 57696U 23127A   26196.94765924  .00002589  00000+0  15957-3 0  9991
2 57696  97.5572 290.4033 0010355 233.8869 126.1403 15.10815301159977
JILIN-01 KUANFU 02B 1   
1 61189U 24169A   26196.96226828  .00001572  00000+0  10324-3 0  9991
2 61189  97.5577 286.0435 0001470 338.5759  21.5408 15.09060065100167
JILIN-01 KUANFU 02B 2   
1 61190U 24169B   26196.94191048  .00001772  00000+0  11601-3 0  9997
2 61190  97.5570 285.4081 0004824 276.0631  84.0048 15.09020942100167
JILIN-01 KUANFU 02B 3   
1 61191U 24169C   26196.95083702  .00001656  00000+0  10840-3 0  9991
2 61191  97.5566 285.8498 0013100 203.1588 156.9052 15.09059617100163
JILIN-01 KUANFU 02B 4   
1 61192U 24169D   26196.91962267  .00002381  00000+0  15412-3 0  9996
2 61192  97.5534 285.3449 0014097 161.3016 198.8734 15.09047313100169
JILIN-01 KUANFU 02B 5   
1 61193U 24169E   26196.90663662  .00001783  00000+0  11639-3 0  9995
2 61193  97.5578 286.1296 0013245 184.9772 175.1328 15.09078357100160
JILIN-01 KUANFU 02B 6   
1 61194U 24169F   26196.93029055  .00002088  00000+0  13565-3 0  9990
2 61194  97.5559 286.0451 0015665 218.6391 141.3718 15.09037033100177
