{"fetched_at":"2026-07-16T06:43:03.374Z","source":"https://celestrak.org/NORAD/elements/gp.php?NAME=JILIN&FORMAT=JSON","constellation":"jilin-1-kuanfu","records":[{"OBJECT_NAME":"JILIN-1 KUANFU 01","OBJECT_ID":"2020-003A","EPOCH":"2026-07-15T21:32:45.000384","CLASSIFICATION_TYPE":"U","MEAN_MOTION":15.1086932,"ECCENTRICITY":0.00093163,"INCLINATION":97.5021,"RA_OF_ASC_NODE":270.2936,"ARG_OF_PERICENTER":194.2821,"MEAN_ANOMALY":165.8147,"EPHEMERIS_TYPE":0,"NORAD_CAT_ID":45016,"ELEMENT_SET_NO":999,"REV_AT_EPOCH":35966,"BSTAR":0.000096372016,"MEAN_MOTION_DOT":0.00001541,"MEAN_MOTION_DDOT":0},{"OBJECT_NAME":"JILIN-1 KUANFU-01B","OBJECT_ID":"2021-061A","EPOCH":"2026-07-15T22:29:13.583328","CLASSIFICATION_TYPE":"U","MEAN_MOTION":15.09810458,"ECCENTRICITY":0.00059535,"INCLINATION":97.5211,"RA_OF_ASC_NODE":272.5959,"ARG_OF_PERICENTER":335.2055,"MEAN_ANOMALY":24.8887,"EPHEMERIS_TYPE":0,"NORAD_CAT_ID":49003,"ELEMENT_SET_NO":999,"REV_AT_EPOCH":27768,"BSTAR":0.000075383604,"MEAN_MOTION_DOT":0.00001156,"MEAN_MOTION_DDOT":0},{"OBJECT_NAME":"JILIN-1 KUANFU 01C","OBJECT_ID":"2022-048A","EPOCH":"2026-07-15T22:17:40.945632","CLASSIFICATION_TYPE":"U","MEAN_MOTION":15.09601795,"ECCENTRICITY":0.00173681,"INCLINATION":97.525,"RA_OF_ASC_NODE":273.5783,"ARG_OF_PERICENTER":217.5214,"MEAN_ANOMALY":142.4804,"EPHEMERIS_TYPE":0,"NORAD_CAT_ID":52443,"ELEMENT_SET_NO":999,"REV_AT_EPOCH":23153,"BSTAR":0.000078274462,"MEAN_MOTION_DOT":0.00001198,"MEAN_MOTION_DDOT":0},{"OBJECT_NAME":"JILIN-1 KUANFU 02A","OBJECT_ID":"2023-127A","EPOCH":"2026-07-15T22:44:37.758336","CLASSIFICATION_TYPE":"U","MEAN_MOTION":15.10815301,"ECCENTRICITY":0.00103557,"INCLINATION":97.5572,"RA_OF_ASC_NODE":290.4033,"ARG_OF_PERICENTER":233.8869,"MEAN_ANOMALY":126.1403,"EPHEMERIS_TYPE":0,"NORAD_CAT_ID":57696,"ELEMENT_SET_NO":999,"REV_AT_EPOCH":15997,"BSTAR":0.00015957453,"MEAN_MOTION_DOT":0.00002589,"MEAN_MOTION_DDOT":0},{"OBJECT_NAME":"JILIN-01 KUANFU 02B 1","OBJECT_ID":"2024-169A","EPOCH":"2026-07-15T23:05:39.979392","CLASSIFICATION_TYPE":"U","MEAN_MOTION":15.09060065,"ECCENTRICITY":0.000147,"INCLINATION":97.5577,"RA_OF_ASC_NODE":286.0435,"ARG_OF_PERICENTER":338.5759,"MEAN_ANOMALY":21.5408,"EPHEMERIS_TYPE":0,"NORAD_CAT_ID":61189,"ELEMENT_SET_NO":999,"REV_AT_EPOCH":10016,"BSTAR":0.00010324232,"MEAN_MOTION_DOT":0.00001572,"MEAN_MOTION_DDOT":0},{"OBJECT_NAME":"JILIN-01 KUANFU 02B 2","OBJECT_ID":"2024-169B","EPOCH":"2026-07-15T22:36:21.065472","CLASSIFICATION_TYPE":"U","MEAN_MOTION":15.09020942,"ECCENTRICITY":0.00048248,"INCLINATION":97.557,"RA_OF_ASC_NODE":285.4081,"ARG_OF_PERICENTER":276.0631,"MEAN_ANOMALY":84.0048,"EPHEMERIS_TYPE":0,"NORAD_CAT_ID":61190,"ELEMENT_SET_NO":999,"REV_AT_EPOCH":10016,"BSTAR":0.00011600681,"MEAN_MOTION_DOT":0.00001772,"MEAN_MOTION_DDOT":0},{"OBJECT_NAME":"JILIN-01 KUANFU 02B 3","OBJECT_ID":"2024-169C","EPOCH":"2026-07-15T22:49:12.318528","CLASSIFICATION_TYPE":"U","MEAN_MOTION":15.09059617,"ECCENTRICITY":0.00131008,"INCLINATION":97.5566,"RA_OF_ASC_NODE":285.8498,"ARG_OF_PERICENTER":203.1588,"MEAN_ANOMALY":156.9052,"EPHEMERIS_TYPE":0,"NORAD_CAT_ID":61191,"ELEMENT_SET_NO":999,"REV_AT_EPOCH":10016,"BSTAR":0.00010840288,"MEAN_MOTION_DOT":0.00001656,"MEAN_MOTION_DDOT":0},{"OBJECT_NAME":"JILIN-01 KUANFU 02B 4","OBJECT_ID":"2024-169D","EPOCH":"2026-07-15T22:04:15.398688","CLASSIFICATION_TYPE":"U","MEAN_MOTION":15.09047313,"ECCENTRICITY":0.00140978,"INCLINATION":97.5534,"RA_OF_ASC_NODE":285.3449,"ARG_OF_PERICENTER":161.3016,"MEAN_ANOMALY":198.8734,"EPHEMERIS_TYPE":0,"NORAD_CAT_ID":61192,"ELEMENT_SET_NO":999,"REV_AT_EPOCH":10016,"BSTAR":0.00015411884,"MEAN_MOTION_DOT":0.00002381,"MEAN_MOTION_DDOT":0},{"OBJECT_NAME":"JILIN-01 KUANFU 02B 5","OBJECT_ID":"2024-169E","EPOCH":"2026-07-15T21:45:33.403968","CLASSIFICATION_TYPE":"U","MEAN_MOTION":15.09078357,"ECCENTRICITY":0.00132458,"INCLINATION":97.5578,"RA_OF_ASC_NODE":286.1296,"ARG_OF_PERICENTER":184.9772,"MEAN_ANOMALY":175.1328,"EPHEMERIS_TYPE":0,"NORAD_CAT_ID":61193,"ELEMENT_SET_NO":999,"REV_AT_EPOCH":10016,"BSTAR":0.00011638558,"MEAN_MOTION_DOT":0.00001783,"MEAN_MOTION_DDOT":0},{"OBJECT_NAME":"JILIN-01 KUANFU 02B 6","OBJECT_ID":"2024-169F","EPOCH":"2026-07-15T22:19:37.103520","CLASSIFICATION_TYPE":"U","MEAN_MOTION":15.09037033,"ECCENTRICITY":0.0015665,"INCLINATION":97.5559,"RA_OF_ASC_NODE":286.0451,"ARG_OF_PERICENTER":218.6391,"MEAN_ANOMALY":141.3718,"EPHEMERIS_TYPE":0,"NORAD_CAT_ID":61194,"ELEMENT_SET_NO":999,"REV_AT_EPOCH":10017,"BSTAR":0.00013565322,"MEAN_MOTION_DOT":0.00002088,"MEAN_MOTION_DDOT":0}]}
